UNKNOWN                 
1 81792U          26066.24694817  .00001912  00000+0  68978-3 0  9991
2 81792  65.8289 265.9091 0894862 245.1418 105.4052 13.11331247 91116
UNKNOWN                 
1 81812U          26065.71239961  .00008673  00000+0  58225-1 0  9993
2 81812 103.8052 353.1653 0282918  86.0673 277.2671 12.38178273550955
UNKNOWN                 
1 81816U          26065.51396507  .00001597  00000+0  12095-2 0  9999
2 81816  66.2376  87.2190 0173451 200.6975 158.7017 13.89754232620981
UNKNOWN                 
1 81819U          26063.20041655  .00000995  00000+0  70340-2 0  9995
2 81819 102.1699 166.5064 0031914 316.1502  43.7032 12.47841625558176
UNKNOWN                 
1 81824U          26063.53248810  .00006595  00000+0  22459-2 0  9999
2 81824  65.8408 113.8028 0048888 293.0682  66.5261 14.36412330636339
UNKNOWN                 
1 81833U          26063.24631894  .00000098  00000+0  32879-3 0  9995
2 81833  90.2477   4.6991 0025978 165.6453 194.5410 12.93760931463057
UNKNOWN                 
1 81838U          26065.93198117  .00008849  00000+0  19027-2 0  9995
2 81838  67.7611  45.9900 0044901 288.9362 100.9660 14.58249515645608
UNKNOWN                 
1 81844U          26066.37482145  .00012997  00000+0  45611-2 0  9995
2 81844  82.9113 213.1352 0060671 251.9407 107.5167 14.33889308635015
UNKNOWN                 
1 81845U          26066.47997730  .00003465  00000+0  37877-3 0  9994
2 81845  97.6777 255.4770 0087444  26.8935   3.3694 14.85708912662106
UNKNOWN                 
1 81864U          26066.44840827  .00001157  00000+0  45930-3 0  9991
2 81864  65.6676 228.8005 0768452 336.6253  20.1508 13.32766957562121
UNKNOWN                 
1 81865U          26066.67976723  .00001386  00000+0  11280-2 0  9996
2 81865  82.8064 323.1006 0062165 121.2448 267.9886 13.88271225620334
UNKNOWN                 
1 81893U          26065.94526491  .00001186  00000+0  12511-2 0  9995
2 81893 100.0566  58.9339 0021843  53.7594 306.5568 13.76905072615664
