CCSDS_OMM_VERS = 2.0
CREATION_DATE  = 
ORIGINATOR     = 

OBJECT_NAME    = UNKNOWN
OBJECT_ID      = 
CENTER_NAME    = EARTH
REF_FRAME      = TEME
TIME_SYSTEM    = UTC
MEAN_ELEMENT_THEORY = SGP/SGP4

EPOCH          = 2026-03-07T05:55:36.321888
MEAN_MOTION    = 13.11331247
ECCENTRICITY   = .0894862
INCLINATION    = 65.8289
RA_OF_ASC_NODE = 265.9091
ARG_OF_PERICENTER = 245.1418
MEAN_ANOMALY   = 105.4052

EPHEMERIS_TYPE = 0
CLASSIFICATION_TYPE = U
NORAD_CAT_ID   = 81792
ELEMENT_SET_NO = 999
REV_AT_EPOCH   = 9111
BSTAR          = .68978E-3
MEAN_MOTION_DOT = .1912E-4
MEAN_MOTION_DDOT = 0

CCSDS_OMM_VERS = 2.0
CREATION_DATE  = 
ORIGINATOR     = 

OBJECT_NAME    = UNKNOWN
OBJECT_ID      = 
CENTER_NAME    = EARTH
REF_FRAME      = TEME
TIME_SYSTEM    = UTC
MEAN_ELEMENT_THEORY = SGP/SGP4

EPOCH          = 2026-03-06T17:05:51.326304
MEAN_MOTION    = 12.38178273
ECCENTRICITY   = .0282918
INCLINATION    = 103.8052
RA_OF_ASC_NODE = 353.1653
ARG_OF_PERICENTER = 86.0673
MEAN_ANOMALY   = 277.2671

EPHEMERIS_TYPE = 0
CLASSIFICATION_TYPE = U
NORAD_CAT_ID   = 81812
ELEMENT_SET_NO = 999
REV_AT_EPOCH   = 55095
BSTAR          = .58225E-1
MEAN_MOTION_DOT = .8673E-4
MEAN_MOTION_DDOT = 0

CCSDS_OMM_VERS = 2.0
CREATION_DATE  = 
ORIGINATOR     = 

OBJECT_NAME    = UNKNOWN
OBJECT_ID      = 
CENTER_NAME    = EARTH
REF_FRAME      = TEME
TIME_SYSTEM    = UTC
MEAN_ELEMENT_THEORY = SGP/SGP4

EPOCH          = 2026-03-06T12:20:06.582048
MEAN_MOTION    = 13.89754232
ECCENTRICITY   = .0173451
INCLINATION    = 66.2376
RA_OF_ASC_NODE = 87.2190
ARG_OF_PERICENTER = 200.6975
MEAN_ANOMALY   = 158.7017

EPHEMERIS_TYPE = 0
CLASSIFICATION_TYPE = U
NORAD_CAT_ID   = 81816
ELEMENT_SET_NO = 999
REV_AT_EPOCH   = 62098
BSTAR          = .12095E-2
MEAN_MOTION_DOT = .1597E-4
MEAN_MOTION_DDOT = 0

CCSDS_OMM_VERS = 2.0
CREATION_DATE  = 
ORIGINATOR     = 

OBJECT_NAME    = UNKNOWN
OBJECT_ID      = 
CENTER_NAME    = EARTH
REF_FRAME      = TEME
TIME_SYSTEM    = UTC
MEAN_ELEMENT_THEORY = SGP/SGP4

EPOCH          = 2026-03-04T04:48:35.989920
MEAN_MOTION    = 12.47841625
ECCENTRICITY   = .0031914
INCLINATION    = 102.1699
RA_OF_ASC_NODE = 166.5064
ARG_OF_PERICENTER = 316.1502
MEAN_ANOMALY   = 43.7032

EPHEMERIS_TYPE = 0
CLASSIFICATION_TYPE = U
NORAD_CAT_ID   = 81819
ELEMENT_SET_NO = 999
REV_AT_EPOCH   = 55817
BSTAR          = .7034E-2
MEAN_MOTION_DOT = .995E-5
MEAN_MOTION_DDOT = 0

CCSDS_OMM_VERS = 2.0
CREATION_DATE  = 
ORIGINATOR     = 

OBJECT_NAME    = UNKNOWN
OBJECT_ID      = 
CENTER_NAME    = EARTH
REF_FRAME      = TEME
TIME_SYSTEM    = UTC
MEAN_ELEMENT_THEORY = SGP/SGP4

EPOCH          = 2026-03-04T12:46:46.971840
MEAN_MOTION    = 14.36412330
ECCENTRICITY   = .0048888
INCLINATION    = 65.8408
RA_OF_ASC_NODE = 113.8028
ARG_OF_PERICENTER = 293.0682
MEAN_ANOMALY   = 66.5261

EPHEMERIS_TYPE = 0
CLASSIFICATION_TYPE = U
NORAD_CAT_ID   = 81824
ELEMENT_SET_NO = 999
REV_AT_EPOCH   = 63633
BSTAR          = .22459E-2
MEAN_MOTION_DOT = .6595E-4
MEAN_MOTION_DDOT = 0

CCSDS_OMM_VERS = 2.0
CREATION_DATE  = 
ORIGINATOR     = 

OBJECT_NAME    = UNKNOWN
OBJECT_ID      = 
CENTER_NAME    = EARTH
REF_FRAME      = TEME
TIME_SYSTEM    = UTC
MEAN_ELEMENT_THEORY = SGP/SGP4

EPOCH          = 2026-03-04T05:54:41.956416
MEAN_MOTION    = 12.93760931
ECCENTRICITY   = .0025978
INCLINATION    = 90.2477
RA_OF_ASC_NODE = 4.6991
ARG_OF_PERICENTER = 165.6453
MEAN_ANOMALY   = 194.5410

EPHEMERIS_TYPE = 0
CLASSIFICATION_TYPE = U
NORAD_CAT_ID   = 81833
ELEMENT_SET_NO = 999
REV_AT_EPOCH   = 46305
BSTAR          = .32879E-3
MEAN_MOTION_DOT = .98E-6
MEAN_MOTION_DDOT = 0

CCSDS_OMM_VERS = 2.0
CREATION_DATE  = 
ORIGINATOR     = 

OBJECT_NAME    = UNKNOWN
OBJECT_ID      = 
CENTER_NAME    = EARTH
REF_FRAME      = TEME
TIME_SYSTEM    = UTC
MEAN_ELEMENT_THEORY = SGP/SGP4

EPOCH          = 2026-03-06T22:22:03.173088
MEAN_MOTION    = 14.58249515
ECCENTRICITY   = .0044901
INCLINATION    = 67.7611
RA_OF_ASC_NODE = 45.9900
ARG_OF_PERICENTER = 288.9362
MEAN_ANOMALY   = 100.9660

EPHEMERIS_TYPE = 0
CLASSIFICATION_TYPE = U
NORAD_CAT_ID   = 81838
ELEMENT_SET_NO = 999
REV_AT_EPOCH   = 64560
BSTAR          = .19027E-2
MEAN_MOTION_DOT = .8849E-4
MEAN_MOTION_DDOT = 0

CCSDS_OMM_VERS = 2.0
CREATION_DATE  = 
ORIGINATOR     = 

OBJECT_NAME    = UNKNOWN
OBJECT_ID      = 
CENTER_NAME    = EARTH
REF_FRAME      = TEME
TIME_SYSTEM    = UTC
MEAN_ELEMENT_THEORY = SGP/SGP4

EPOCH          = 2026-03-07T08:59:44.573280
MEAN_MOTION    = 14.33889308
ECCENTRICITY   = .0060671
INCLINATION    = 82.9113
RA_OF_ASC_NODE = 213.1352
ARG_OF_PERICENTER = 251.9407
MEAN_ANOMALY   = 107.5167

EPHEMERIS_TYPE = 0
CLASSIFICATION_TYPE = U
NORAD_CAT_ID   = 81844
ELEMENT_SET_NO = 999
REV_AT_EPOCH   = 63501
BSTAR          = .45611E-2
MEAN_MOTION_DOT = .12997E-3
MEAN_MOTION_DDOT = 0

CCSDS_OMM_VERS = 2.0
CREATION_DATE  = 
ORIGINATOR     = 

OBJECT_NAME    = UNKNOWN
OBJECT_ID      = 
CENTER_NAME    = EARTH
REF_FRAME      = TEME
TIME_SYSTEM    = UTC
MEAN_ELEMENT_THEORY = SGP/SGP4

EPOCH          = 2026-03-07T11:31:10.038720
MEAN_MOTION    = 14.85708912
ECCENTRICITY   = .0087444
INCLINATION    = 97.6777
RA_OF_ASC_NODE = 255.4770
ARG_OF_PERICENTER = 26.8935
MEAN_ANOMALY   = 3.3694

EPHEMERIS_TYPE = 0
CLASSIFICATION_TYPE = U
NORAD_CAT_ID   = 81845
ELEMENT_SET_NO = 999
REV_AT_EPOCH   = 66210
BSTAR          = .37877E-3
MEAN_MOTION_DOT = .3465E-4
MEAN_MOTION_DDOT = 0

CCSDS_OMM_VERS = 2.0
CREATION_DATE  = 
ORIGINATOR     = 

OBJECT_NAME    = UNKNOWN
OBJECT_ID      = 
CENTER_NAME    = EARTH
REF_FRAME      = TEME
TIME_SYSTEM    = UTC
MEAN_ELEMENT_THEORY = SGP/SGP4

EPOCH          = 2026-03-07T10:45:42.474528
MEAN_MOTION    = 13.32766957
ECCENTRICITY   = .0768452
INCLINATION    = 65.6676
RA_OF_ASC_NODE = 228.8005
ARG_OF_PERICENTER = 336.6253
MEAN_ANOMALY   = 20.1508

EPHEMERIS_TYPE = 0
CLASSIFICATION_TYPE = U
NORAD_CAT_ID   = 81864
ELEMENT_SET_NO = 999
REV_AT_EPOCH   = 56212
BSTAR          = .4593E-3
MEAN_MOTION_DOT = .1157E-4
MEAN_MOTION_DDOT = 0

CCSDS_OMM_VERS = 2.0
CREATION_DATE  = 
ORIGINATOR     = 

OBJECT_NAME    = UNKNOWN
OBJECT_ID      = 
CENTER_NAME    = EARTH
REF_FRAME      = TEME
TIME_SYSTEM    = UTC
MEAN_ELEMENT_THEORY = SGP/SGP4

EPOCH          = 2026-03-07T16:18:51.888672
MEAN_MOTION    = 13.88271225
ECCENTRICITY   = .0062165
INCLINATION    = 82.8064
RA_OF_ASC_NODE = 323.1006
ARG_OF_PERICENTER = 121.2448
MEAN_ANOMALY   = 267.9886

EPHEMERIS_TYPE = 0
CLASSIFICATION_TYPE = U
NORAD_CAT_ID   = 81865
ELEMENT_SET_NO = 999
REV_AT_EPOCH   = 62033
BSTAR          = .1128E-2
MEAN_MOTION_DOT = .1386E-4
MEAN_MOTION_DDOT = 0

CCSDS_OMM_VERS = 2.0
CREATION_DATE  = 
ORIGINATOR     = 

OBJECT_NAME    = UNKNOWN
OBJECT_ID      = 
CENTER_NAME    = EARTH
REF_FRAME      = TEME
TIME_SYSTEM    = UTC
MEAN_ELEMENT_THEORY = SGP/SGP4

EPOCH          = 2026-03-06T22:41:10.888224
MEAN_MOTION    = 13.76905072
ECCENTRICITY   = .0021843
INCLINATION    = 100.0566
RA_OF_ASC_NODE = 58.9339
ARG_OF_PERICENTER = 53.7594
MEAN_ANOMALY   = 306.5568

EPHEMERIS_TYPE = 0
CLASSIFICATION_TYPE = U
NORAD_CAT_ID   = 81893
ELEMENT_SET_NO = 999
REV_AT_EPOCH   = 61566
BSTAR          = .12511E-2
MEAN_MOTION_DOT = .1186E-4
MEAN_MOTION_DDOT = 0

